{"type": "FeatureCollection", "features": [ {"type": "Feature", "properties": {"norad_id": 41556, "name": "ZIYUAN 3-02 (ZY 3-02)", "group": "resource", "lat": 8.57870058416248, "lon": 67.07477094910732, "alt_km": 510.84244847144237, "timestamp": "2025-12-20T03:42:47.049436+00:00", "meta": {"OBJECT_NAME": "ZIYUAN 3-02 (ZY 3-02)", "OBJECT_ID": "2016-033A", "EPOCH": "2025-12-19T21:21:36.087264", "MEAN_MOTION": 15.211511, "ECCENTRICITY": 0.0011005, "INCLINATION": 97.4041, "RA_OF_ASC_NODE": 67.9386, "ARG_OF_PERICENTER": 219.3639, "MEAN_ANOMALY": 140.6798, "EPHEMERIS_TYPE": 0, "CLASSIFICATION_TYPE": "U", "NORAD_CAT_ID": 41556, "ELEMENT_SET_NO": 999, "REV_AT_EPOCH": 53072, "BSTAR": 0.0002426, "MEAN_MOTION_DOT": 5.342e-05, "MEAN_MOTION_DDOT": 0}, "tle": {"line1": "1 41556U 16033A   25353.89000101  .00005342  00000+0  24260-3 0  9991", "line2": "2 41556  97.4041  67.9386 0011005 219.3639 140.6798 15.21151100530726"}}, "geometry": {"type": "Point", "coordinates": [67.07477094910732, 8.57870058416248]}}, {"type": "Feature", "properties": {"norad_id": 41599, "name": "CARTOSAT-2C", "group": "resource", "lat": -74.71403466645599, "lon": -157.38997552308845, "alt_km": 521.8123928551249, "timestamp": "2025-12-20T03:42:47.049446+00:00", "meta": {"OBJECT_NAME": "CARTOSAT-2C", "OBJECT_ID": "2016-040A", "EPOCH": "2025-12-19T20:15:48.974112", "MEAN_MOTION": 15.19171104, "ECCENTRICITY": 0.0011141, "INCLINATION": 97.4765, "RA_OF_ASC_NODE": 51.0217, "ARG_OF_PERICENTER": 40.783, "MEAN_ANOMALY": 319.4237, "EPHEMERIS_TYPE": 0, "CLASSIFICATION_TYPE": "U", "NORAD_CAT_ID": 41599, "ELEMENT_SET_NO": 999, "REV_AT_EPOCH": 52648, "BSTAR": 6.2731e-05, "MEAN_MOTION_DOT": 1.252e-05, "MEAN_MOTION_DDOT": 0}, "tle": {"line1": "1 41599U 16040A   25353.84431683  .00001252  00000+0  62731-4 0  9996", "line2": "2 41599  97.4765  51.0217 0011141  40.7830 319.4237 15.19171104526488"}}, "geometry": {"type": "Point", "coordinates": [-157.38997552308845, -74.71403466645599]}}, {"type": "Feature", "properties": {"norad_id": 41601, "name": "SKYSAT-C1", "group": "resource", "lat": -49.70825190683064, "lon": 39.06113384402677, "alt_km": 473.83159555702696, "timestamp": "2025-12-20T03:42:47.049456+00:00", "meta": {"OBJECT_NAME": "SKYSAT-C1", "OBJECT_ID": "2016-040C", "EPOCH": "2025-12-19T13:49:47.529120", "MEAN_MOTION": 15.32708118, "ECCENTRICITY": 0.000158, "INCLINATION": 96.9813, "RA_OF_ASC_NODE": 30.2048, "ARG_OF_PERICENTER": 351.0695, "MEAN_ANOMALY": 9.052, "EPHEMERIS_TYPE": 0, "CLASSIFICATION_TYPE": "U", "NORAD_CAT_ID": 41601, "ELEMENT_SET_NO": 999, "REV_AT_EPOCH": 53032, "BSTAR": 0.00021842, "MEAN_MOTION_DOT": 6.827e-05, "MEAN_MOTION_DDOT": 0}, "tle": {"line1": "1 41601U 16040C   25353.57624455  .00006827  00000+0  21842-3 0  9991", "line2": "2 41601  96.9813  30.2048 0001580 351.0695   9.0520 15.32708118530325"}}, "geometry": {"type": "Point", "coordinates": [39.06113384402677, -49.70825190683064]}}, {"type": "Feature", "properties": {"norad_id": 41603, "name": "LAPAN-A3", "group": "resource", "lat": 64.14148640022076, "lon": -23.552595317577904, "alt_km": 467.9828578321276, "timestamp": "2025-12-20T03:42:47.049467+00:00", "meta": {"OBJECT_NAME": "LAPAN-A3", "OBJECT_ID": "2016-040E", "EPOCH": "2025-12-19T21:09:28.600128", "MEAN_MOTION": 15.31605625, "ECCENTRICITY": 0.0008994, "INCLINATION": 97.1423, "RA_OF_ASC_NODE": 351.1781, "ARG_OF_PERICENTER": 304.9457, "MEAN_ANOMALY": 55.094, "EPHEMERIS_TYPE": 0, "CLASSIFICATION_TYPE": "U", "NORAD_CAT_ID": 41603, "ELEMENT_SET_NO": 999, "REV_AT_EPOCH": 52735, "BSTAR": 9.1687e-05, "MEAN_MOTION_DOT": 2.727e-05, "MEAN_MOTION_DDOT": 0}, "tle": {"line1": "1 41603U 16040E   25353.88158102  .00002727  00000+0  91687-4 0  9998", "line2": "2 41603  97.1423 351.1781 0008994 304.9457  55.0940 15.31605625527359"}}, "geometry": {"type": "Point", "coordinates": [-23.552595317577904, 64.14148640022076]}}, {"type": "Feature", "properties": {"norad_id": 41604, "name": "BIROS", "group": "resource", "lat": 35.36349708659599, "lon": 20.84758611801816, "alt_km": 293.2646905921856, "timestamp": "2025-12-20T03:42:47.049477+00:00", "meta": {"OBJECT_NAME": "BIROS", "OBJECT_ID": "2016-040F", "EPOCH": "2025-12-19T01:55:23.148192", "MEAN_MOTION": 15.92127149, "ECCENTRICITY": 0.00035441, "INCLINATION": 97.0685, "RA_OF_ASC_NODE": 24.7778, "ARG_OF_PERICENTER": 134.1983, "MEAN_ANOMALY": 225.9584, "EPHEMERIS_TYPE": 0, "CLASSIFICATION_TYPE": "U", "NORAD_CAT_ID": 41604, "ELEMENT_SET_NO": 999, "REV_AT_EPOCH": 52973, "BSTAR": 0.00053351864, "MEAN_MOTION_DOT": 0.00176218, "MEAN_MOTION_DDOT": 1.3459503e-05}, "tle": {"line1": "1 41604U 16040F   25353.08012903  .00176218  13460-4  53352-3 0  9991", "line2": "2 41604  97.0685  24.7778 0003544 134.1983 225.9584 15.92127149529734"}}, "geometry": {"type": "Point", "coordinates": [20.84758611801816, 35.36349708659599]}}, {"type": "Feature", "properties": {"norad_id": 41727, "name": "GAOFEN-3", "group": "resource", "lat": -18.971445352059142, "lon": 2.540819506514228, "alt_km": 756.0345252100742, "timestamp": "2025-12-20T03:42:47.049487+00:00", "meta": {"OBJECT_NAME": "GAOFEN-3", "OBJECT_ID": "2016-049A", "EPOCH": "2025-12-19T21:08:29.463648", "MEAN_MOTION": 14.42214907, "ECCENTRICITY": 0.0001255, "INCLINATION": 98.4032, "RA_OF_ASC_NODE": 359.3584, "ARG_OF_PERICENTER": 57.7589, "MEAN_ANOMALY": 302.3722, "EPHEMERIS_TYPE": 0, "CLASSIFICATION_TYPE": "U", "NORAD_CAT_ID": 41727, "ELEMENT_SET_NO": 999, "REV_AT_EPOCH": 49280, "BSTAR": -1.3385e-05, "MEAN_MOTION_DOT": -8.8e-07, "MEAN_MOTION_DDOT": 0}, "tle": {"line1": "1 41727U 16049A   25353.88089657 -.00000088  00000+0 -13385-4 0  9991", "line2": "2 41727  98.4032 359.3584 0001255  57.7589 302.3722 14.42214907492806"}}, "geometry": {"type": "Point", "coordinates": [2.540819506514228, -18.971445352059142]}}, {"type": "Feature", "properties": {"norad_id": 41771, "name": "SKYSAT-C4", "group": "resource", "lat": 36.02780910130756, "lon": -155.93757758267026, "alt_km": 435.12884986486824, "timestamp": "2025-12-20T03:42:47.049497+00:00", "meta": {"OBJECT_NAME": "SKYSAT-C4", "OBJECT_ID": "2016-058B", "EPOCH": "2025-12-19T00:37:25.370976", "MEAN_MOTION": 15.42424103, "ECCENTRICITY": 0.00020919, "INCLINATION": 96.9363, "RA_OF_ASC_NODE": 17.9086, "ARG_OF_PERICENTER": 130.2828, "MEAN_ANOMALY": 229.8603, "EPHEMERIS_TYPE": 0, "CLASSIFICATION_TYPE": "U", "NORAD_CAT_ID": 41771, "ELEMENT_SET_NO": 999, "REV_AT_EPOCH": 51764, "BSTAR": 0.00028649124, "MEAN_MOTION_DOT": 0.00012311, "MEAN_MOTION_DDOT": 0}, "tle": {"line1": "1 41771U 16058B   25353.02598809  .00012311  00000+0  28649-3 0  9998", "line2": "2 41771  96.9363  17.9086 0002091 130.2828 229.8603 15.42424103517644"}}, "geometry": {"type": "Point", "coordinates": [-155.93757758267026, 36.02780910130756]}}, {"type": "Feature", "properties": {"norad_id": 41772, "name": "SKYSAT-C5", "group": "resource", "lat": -18.332412795188738, "lon": -144.76139152080265, "alt_km": 467.7480344677924, "timestamp": "2025-12-20T03:42:47.049508+00:00", "meta": {"OBJECT_NAME": "SKYSAT-C5", "OBJECT_ID": "2016-058C", "EPOCH": "2025-12-19T09:37:46.106976", "MEAN_MOTION": 15.33990417, "ECCENTRICITY": 0.0003766, "INCLINATION": 97.075, "RA_OF_ASC_NODE": 36.8752, "ARG_OF_PERICENTER": 260.952, "MEAN_ANOMALY": 99.1298, "EPHEMERIS_TYPE": 0, "CLASSIFICATION_TYPE": "U", "NORAD_CAT_ID": 41772, "ELEMENT_SET_NO": 999, "REV_AT_EPOCH": 51618, "BSTAR": 0.00022283, "MEAN_MOTION_DOT": 7.254e-05, "MEAN_MOTION_DDOT": 0}, "tle": {"line1": "1 41772U 16058C   25353.40122809  .00007254  00000+0  22283-3 0  9992", "line2": "2 41772  97.0750  36.8752 0003766 260.9520  99.1298 15.33990417516189"}}, "geometry": {"type": "Point", "coordinates": [-144.76139152080265, -18.332412795188738]}}, {"type": "Feature", "properties": {"norad_id": 41773, "name": "SKYSAT-C2", "group": "resource", "lat": -64.13617616315967, "lon": 33.12572147296939, "alt_km": 460.4625097580083, "timestamp": "2025-12-20T03:42:47.049518+00:00", "meta": {"OBJECT_NAME": "SKYSAT-C2", "OBJECT_ID": "2016-058D", "EPOCH": "2025-12-18T23:52:40.992960", "MEAN_MOTION": 15.37407901, "ECCENTRICITY": 0.00035522, "INCLINATION": 97.0351, "RA_OF_ASC_NODE": 17.257, "ARG_OF_PERICENTER": 17.3368, "MEAN_ANOMALY": 342.7999, "EPHEMERIS_TYPE": 0, "CLASSIFICATION_TYPE": "U", "NORAD_CAT_ID": 41773, "ELEMENT_SET_NO": 999, "REV_AT_EPOCH": 51732, "BSTAR": 0.0002611674, "MEAN_MOTION_DOT": 9.504e-05, "MEAN_MOTION_DDOT": 0}, "tle": {"line1": "1 41773U 16058D   25352.99491890  .00009504  00000+0  26117-3 0  9995", "line2": "2 41773  97.0351  17.2570 0003552  17.3368 342.7999 15.37407901517322"}}, "geometry": {"type": "Point", "coordinates": [33.12572147296939, -64.13617616315967]}}, {"type": "Feature", "properties": {"norad_id": 41774, "name": "SKYSAT-C3", "group": "resource", "lat": -44.887203499809324, "lon": 34.51348229598439, "alt_km": 440.38402305306045, "timestamp": "2025-12-20T03:42:47.049528+00:00", "meta": {"OBJECT_NAME": "SKYSAT-C3", "OBJECT_ID": "2016-058E", "EPOCH": "2025-12-19T20:08:06.036000", "MEAN_MOTION": 15.44638022, "ECCENTRICITY": 0.0001919, "INCLINATION": 96.9286, "RA_OF_ASC_NODE": 27.2551, "ARG_OF_PERICENTER": 108.1196, "MEAN_ANOMALY": 252.0263, "EPHEMERIS_TYPE": 0, "CLASSIFICATION_TYPE": "U", "NORAD_CAT_ID": 41774, "ELEMENT_SET_NO": 999, "REV_AT_EPOCH": 51835, "BSTAR": 0.00029927, "MEAN_MOTION_DOT": 0.00013863, "MEAN_MOTION_DDOT": 0}, "tle": {"line1": "1 41774U 16058E   25353.83895875  .00013863  00000+0  29927-3 0  9996", "line2": "2 41774  96.9286  27.2551 0001919 108.1196 252.0263 15.44638022518350"}}, "geometry": {"type": "Point", "coordinates": [34.51348229598439, -44.887203499809324]}}]}